{
  "norad_id": 64708,
  "name": "STARLINK-34563",
  "history": [
    {
      "epoch": "2026-03-28T20:04:56.344800",
      "apogee_km": 573.8769270735856,
      "perigee_km": 570.1773547013909,
      "latitude_deg": 69.9449321668573,
      "longitude_deg": 11.129271999932826,
      "semi_major_axis_km": 6950.1641408874875,
      "eccentricity": 0.00026615,
      "inclination_deg": 69.9999,
      "raan_deg": 266.382,
      "arg_perigee_deg": 268.6062,
      "mean_anomaly_deg": 91.4792,
      "mean_motion_rev_day": 14.98339297
    }
  ]
}